{
    "links": {
        "self": "http://www.neowsapp.com/rest/v1/neo/3647671?api_key=iIulBulltgU6a56xZRHN4H3l9WmuAYTsLGpBGhQ2"
    },
    "id": "3647671",
    "neo_reference_id": "3647671",
    "name": "(2013 RO30)",
    "designation": "2013 RO30",
    "nasa_jpl_url": "http://ssd.jpl.nasa.gov/sbdb.cgi?sstr=3647671",
    "absolute_magnitude_h": 28.4,
    "estimated_diameter": {
        "kilometers": {
            "estimated_diameter_min": 0.0055533491,
            "estimated_diameter_max": 0.0124176661
        },
        "meters": {
            "estimated_diameter_min": 5.5533491158,
            "estimated_diameter_max": 12.4176661257
        },
        "miles": {
            "estimated_diameter_min": 0.0034506901,
            "estimated_diameter_max": 0.0077159776
        },
        "feet": {
            "estimated_diameter_min": 18.2196499131,
            "estimated_diameter_max": 40.740375732
        }
    },
    "is_potentially_hazardous_asteroid": false,
    "close_approach_data": [
        {
            "close_approach_date": "2013-09-04",
            "close_approach_date_full": "2013-Sep-04 05:54",
            "epoch_date_close_approach": 1378274040000,
            "relative_velocity": {
                "kilometers_per_second": "10.1586647329",
                "kilometers_per_hour": "36571.1930384386",
                "miles_per_hour": "22723.9171410231"
            },
            "miss_distance": {
                "astronomical": "0.0041461037",
                "lunar": "1.6128343393",
                "kilometers": "620248.282319119",
                "miles": "385404.4111930822"
            },
            "orbiting_body": "Moon"
        },
        {
            "close_approach_date": "2013-09-04",
            "close_approach_date_full": "2013-Sep-04 09:47",
            "epoch_date_close_approach": 1378288020000,
            "relative_velocity": {
                "kilometers_per_second": "9.4064611889",
                "kilometers_per_hour": "33863.2602801412",
                "miles_per_hour": "21041.3130335133"
            },
            "miss_distance": {
                "astronomical": "0.0019461485",
                "lunar": "0.7570517665",
                "kilometers": "291139.670303695",
                "miles": "180905.802413191"
            },
            "orbiting_body": "Earth"
        }
    ],
    "orbital_data": {
        "orbit_id": "4",
        "orbit_determination_date": "2017-04-06 08:44:48",
        "first_observation_date": "2013-09-05",
        "last_observation_date": "2013-09-07",
        "data_arc_in_days": 2,
        "observations_used": 11,
        "orbit_uncertainty": "8",
        "minimum_orbit_intersection": ".00196583",
        "jupiter_tisserand_invariant": "3.751",
        "epoch_osculation": "2456541.5",
        "eccentricity": ".4894002365013829",
        "semi_major_axis": "1.926276228891567",
        "inclination": "8.339864314807603",
        "ascending_node_longitude": "162.4069890824741",
        "orbital_period": "976.5090550264547",
        "perihelion_distance": ".9835561869050419",
        "perihelion_argument": "156.4971863499428",
        "aphelion_distance": "2.868996270878092",
        "perihelion_time": "2456520.976563717749",
        "mean_anomaly": "7.566173630013292",
        "mean_motion": ".3686601759061489",
        "equinox": "J2000",
        "orbit_class": {
            "orbit_class_type": "APO",
            "orbit_class_description": "Near-Earth asteroid orbits which cross the Earth’s orbit similar to that of 1862 Apollo",
            "orbit_class_range": "a (semi-major axis) > 1.0 AU; q (perihelion) < 1.017 AU"
        }
    },
    "is_sentry_object": false
}